start=new Date('2022-03-03T00:00:00.000Z').valueOf();
sats=[{"GP_ID":"197661465","CLASSIFICATION_TYPE":"U","ELEMENT_SET_NO":"999","RA_OF_ASC_NODE":"290.3191","MEAN_ELEMENT_THEORY":"SGP4","SITE":"AFETR","ARG_OF_PERICENTER":"41.6293","TIME_SYSTEM":"UTC","PERIOD":"93.657","NORAD_CAT_ID":"50839","MEAN_MOTION_DDOT":"0.0000000000000","EPHEMERIS_TYPE":"0","FILE":"3341695","OBJECT_TYPE":"PAYLOAD","ECCENTRICITY":"0.00017700","TLE_LINE1":"1 50839U 22001AN  22061.91667824 -.00660569  00000-0 -19020-1 0  9991","PERIAPSIS":"452.244","TLE_LINE2":"2 50839  53.2175 290.3191 0001770  41.6293 234.9721 15.37518050  3674","APOAPSIS":"454.663","REF_FRAME":"TEME","LAUNCH_DATE":"2022-01-06","OBJECT_NAME":"STARLINK-3320","OBJECT_ID":"2022-001AN","MEAN_MOTION_DOT":"-0.00660569","REV_AT_EPOCH":"367","MEAN_ANOMALY":"234.9721","RCS_SIZE":"LARGE","SEMIMAJOR_AXIS":"6831.588","MEAN_MOTION":"15.37518050","BSTAR":"-0.01902000000000","DECAY_DATE":null,"COUNTRY_CODE":"US","EPOCH":"2022-03-02T22:00:00.999936","INCLINATION":"53.2175","CENTER_NAME":"EARTH"},{"LAUNCH_DATE":"2022-01-06","REF_FRAME":"TEME","OBJECT_NAME":"STARLINK-3295","APOAPSIS":"454.456","TLE_LINE2":"2 50840  53.2175 290.3188 0001976  33.6430 254.3144 15.37635381  3676","OBJECT_ID":"2022-001AP","SEMIMAJOR_AXIS":"6831.241","MEAN_MOTION":"15.37635381","BSTAR":"-0.01896800000000","MEAN_ANOMALY":"254.3144","RCS_SIZE":"LARGE","MEAN_MOTION_DOT":"-0.00661267","REV_AT_EPOCH":"367","CENTER_NAME":"EARTH","EPOCH":"2022-03-02T22:00:00.999936","INCLINATION":"53.2175","DECAY_DATE":null,"COUNTRY_CODE":"US","MEAN_ELEMENT_THEORY":"SGP4","ELEMENT_SET_NO":"999","RA_OF_ASC_NODE":"290.3188","CLASSIFICATION_TYPE":"U","GP_ID":"197661716","TIME_SYSTEM":"UTC","ARG_OF_PERICENTER":"33.6430","SITE":"AFETR","FILE":"3341695","EPHEMERIS_TYPE":"0","PERIOD":"93.650","NORAD_CAT_ID":"50840","MEAN_MOTION_DDOT":"0.0000000000000","PERIAPSIS":"451.756","TLE_LINE1":"1 50840U 22001AP  22061.91667824 -.00661267  00000-0 -18968-1 0  9999","ECCENTRICITY":"0.00019760","OBJECT_TYPE":"PAYLOAD"},{"TIME_SYSTEM":"UTC","ARG_OF_PERICENTER":"29.4319","SITE":"AFETR","MEAN_ELEMENT_THEORY":"SGP4","ELEMENT_SET_NO":"999","RA_OF_ASC_NODE":"290.3195","CLASSIFICATION_TYPE":"U","GP_ID":"197660463","PERIAPSIS":"452.630","TLE_LINE1":"1 50841U 22001AQ  22061.91667824 -.00660221  00000-0 -19153-1 0  9996","ECCENTRICITY":"0.00022200","OBJECT_TYPE":"PAYLOAD","FILE":"3341695","EPHEMERIS_TYPE":"0","MEAN_MOTION_DDOT":"0.0000000000000","PERIOD":"93.672","NORAD_CAT_ID":"50841","OBJECT_ID":"2022-001AQ","OBJECT_NAME":"STARLINK-3300","REF_FRAME":"TEME","LAUNCH_DATE":"2022-01-06","APOAPSIS":"455.664","TLE_LINE2":"2 50841  53.2175 290.3195 0002220  29.4319 224.3520 15.37283966  3670","CENTER_NAME":"EARTH","INCLINATION":"53.2175","EPOCH":"2022-03-02T22:00:00.999936","DECAY_DATE":null,"COUNTRY_CODE":"US","BSTAR":"-0.01915300000000","SEMIMAJOR_AXIS":"6832.282","MEAN_MOTION":"15.37283966","RCS_SIZE":"LARGE","MEAN_ANOMALY":"224.3520","REV_AT_EPOCH":"367","MEAN_MOTION_DOT":"-0.00660221"},{"OBJECT_ID":"2022-001AR","REF_FRAME":"TEME","LAUNCH_DATE":"2022-01-06","OBJECT_NAME":"STARLINK-3302","APOAPSIS":"454.069","TLE_LINE2":"2 50842  53.2174 290.3184 0001918  34.0669 265.2113 15.37752552  3675","CENTER_NAME":"EARTH","EPOCH":"2022-03-02T22:00:00.999936","INCLINATION":"53.2174","DECAY_DATE":null,"COUNTRY_CODE":"US","SEMIMAJOR_AXIS":"6830.894","MEAN_MOTION":"15.37752552","BSTAR":"-0.01890700000000","MEAN_ANOMALY":"265.2113","RCS_SIZE":"LARGE","MEAN_MOTION_DOT":"-0.00661633","REV_AT_EPOCH":"367","TIME_SYSTEM":"UTC","ARG_OF_PERICENTER":"34.0669","SITE":"AFETR","MEAN_ELEMENT_THEORY":"SGP4","ELEMENT_SET_NO":"999","RA_OF_ASC_NODE":"290.3184","CLASSIFICATION_TYPE":"U","GP_ID":"197661213","TLE_LINE1":"1 50842U 22001AR  22061.91667824 -.00661633  00000-0 -18907-1 0  9991","PERIAPSIS":"451.449","ECCENTRICITY":"0.00019180","OBJECT_TYPE":"PAYLOAD","FILE":"3341695","EPHEMERIS_TYPE":"0","NORAD_CAT_ID":"50842","PERIOD":"93.643","MEAN_MOTION_DDOT":"0.0000000000000"},{"BSTAR":"-0.01928200000000","SEMIMAJOR_AXIS":"6832.976","MEAN_MOTION":"15.37049782","RCS_SIZE":"LARGE","MEAN_ANOMALY":"192.7201","REV_AT_EPOCH":"367","MEAN_MOTION_DOT":"-0.00659626","CENTER_NAME":"EARTH","INCLINATION":"53.2175","EPOCH":"2022-03-02T22:00:00.999936","DECAY_DATE":null,"COUNTRY_CODE":"US","OBJECT_NAME":"STARLINK-3325","LAUNCH_DATE":"2022-01-06","REF_FRAME":"TEME","APOAPSIS":"456.173","TLE_LINE2":"2 50843  53.2175 290.3195 0001950  38.1058 192.7201 15.37049782  3678","OBJECT_ID":"2022-001AS","FILE":"3341695","EPHEMERIS_TYPE":"0","MEAN_MOTION_DDOT":"0.0000000000000","PERIOD":"93.686","NORAD_CAT_ID":"50843","TLE_LINE1":"1 50843U 22001AS  22061.91667824 -.00659626  00000-0 -19282-1 0  9998","ECCENTRICITY":"0.00019500","PERIAPSIS":"453.508","OBJECT_TYPE":"PAYLOAD","MEAN_ELEMENT_THEORY":"SGP4","RA_OF_ASC_NODE":"290.3195","ELEMENT_SET_NO":"999","CLASSIFICATION_TYPE":"U","GP_ID":"197661965","TIME_SYSTEM":"UTC","ARG_OF_PERICENTER":"38.1058","SITE":"AFETR"},{"ARG_OF_PERICENTER":"37.8576","TIME_SYSTEM":"UTC","SITE":"AFETR","ELEMENT_SET_NO":"999","RA_OF_ASC_NODE":"290.3167","MEAN_ELEMENT_THEORY":"SGP4","GP_ID":"197662216","CLASSIFICATION_TYPE":"U","ECCENTRICITY":"0.00017210","TLE_LINE1":"1 50844U 22001AT  22061.91667824 -.00662832  00000-0 -18728-1 0  9996","PERIAPSIS":"450.543","OBJECT_TYPE":"PAYLOAD","EPHEMERIS_TYPE":"0","FILE":"3341695","MEAN_MOTION_DDOT":"0.0000000000000","PERIOD":"93.622","NORAD_CAT_ID":"50844","OBJECT_ID":"2022-001AT","APOAPSIS":"452.893","OBJECT_NAME":"STARLINK-3326","LAUNCH_DATE":"2022-01-06","REF_FRAME":"TEME","TLE_LINE2":"2 50844  53.2174 290.3167 0001721  37.8576 295.1725 15.38104080  3677","INCLINATION":"53.2174","EPOCH":"2022-03-02T22:00:00.999936","CENTER_NAME":"EARTH","COUNTRY_CODE":"US","DECAY_DATE":null,"RCS_SIZE":"LARGE","MEAN_ANOMALY":"295.1725","BSTAR":"-0.01872800000000","SEMIMAJOR_AXIS":"6829.853","MEAN_MOTION":"15.38104080","REV_AT_EPOCH":"367","MEAN_MOTION_DOT":"-0.00662832"},{"TLE_LINE2":"2 50845  53.2174 290.3221 0001202  71.4294 322.7981 15.38876086  3677","LAUNCH_DATE":"2022-01-06","REF_FRAME":"TEME","OBJECT_NAME":"STARLINK-3230","APOAPSIS":"450.254","OBJECT_ID":"2022-001AU","MEAN_MOTION_DOT":"-0.00664449","REV_AT_EPOCH":"367","SEMIMAJOR_AXIS":"6827.569","MEAN_MOTION":"15.38876086","BSTAR":"-0.01830900000000","MEAN_ANOMALY":"322.7981","RCS_SIZE":"LARGE","COUNTRY_CODE":"US","DECAY_DATE":null,"CENTER_NAME":"EARTH","EPOCH":"2022-03-02T22:00:00.999936","INCLINATION":"53.2174","CLASSIFICATION_TYPE":"U","GP_ID":"197660963","MEAN_ELEMENT_THEORY":"SGP4","ELEMENT_SET_NO":"999","RA_OF_ASC_NODE":"290.3221","SITE":"AFETR","TIME_SYSTEM":"UTC","ARG_OF_PERICENTER":"71.4294","NORAD_CAT_ID":"50845","PERIOD":"93.575","MEAN_MOTION_DDOT":"0.0000000000000","FILE":"3341695","EPHEMERIS_TYPE":"0","OBJECT_TYPE":"PAYLOAD","TLE_LINE1":"1 50845U 22001AU  22061.91667824 -.00664449  00000-0 -18309-1 0  9998","PERIAPSIS":"448.613","ECCENTRICITY":"0.00012020"},{"DECAY_DATE":null,"COUNTRY_CODE":"US","CENTER_NAME":"EARTH","INCLINATION":"53.2174","EPOCH":"2022-03-02T22:00:00.999936","REV_AT_EPOCH":"367","MEAN_MOTION_DOT":"-0.00663438","BSTAR":"-0.01867400000000","SEMIMAJOR_AXIS":"6829.506","MEAN_MOTION":"15.38221355","RCS_SIZE":"LARGE","MEAN_ANOMALY":"311.3250","OBJECT_ID":"2022-001AV","TLE_LINE2":"2 50846  53.2174 290.3160 0001850  32.8854 311.3250 15.38221355  3678","OBJECT_NAME":"STARLINK-3308","LAUNCH_DATE":"2022-01-06","REF_FRAME":"TEME","APOAPSIS":"452.634","OBJECT_TYPE":"PAYLOAD","TLE_LINE1":"1 50846U 22001AV  22061.91667824 -.00663438  00000-0 -18674-1 0  9991","ECCENTRICITY":"0.00018500","PERIAPSIS":"450.107","MEAN_MOTION_DDOT":"0.0000000000000","NORAD_CAT_ID":"50846","PERIOD":"93.615","FILE":"3341695","EPHEMERIS_TYPE":"0","SITE":"AFETR","TIME_SYSTEM":"UTC","ARG_OF_PERICENTER":"32.8854","CLASSIFICATION_TYPE":"U","GP_ID":"197660714","MEAN_ELEMENT_THEORY":"SGP4","ELEMENT_SET_NO":"999","RA_OF_ASC_NODE":"290.3160"},{"OBJECT_TYPE":"PAYLOAD","PERIAPSIS":"452.518","TLE_LINE1":"1 50847U 22001AW  22061.91667824 -.00660398  00000-0 -19087-1 0  9993","ECCENTRICITY":"0.00018760","MEAN_MOTION_DDOT":"0.0000000000000","NORAD_CAT_ID":"50847","PERIOD":"93.665","FILE":"3341695","EPHEMERIS_TYPE":"0","SITE":"AFETR","TIME_SYSTEM":"UTC","ARG_OF_PERICENTER":"38.3430","CLASSIFICATION_TYPE":"U","GP_ID":"197661466","MEAN_ELEMENT_THEORY":"SGP4","RA_OF_ASC_NODE":"290.3193","ELEMENT_SET_NO":"999","COUNTRY_CODE":"US","DECAY_DATE":null,"CENTER_NAME":"EARTH","INCLINATION":"53.2175","EPOCH":"2022-03-02T22:00:00.999936","REV_AT_EPOCH":"367","MEAN_MOTION_DOT":"-0.00660398","BSTAR":"-0.01908700000000","SEMIMAJOR_AXIS":"6831.935","MEAN_MOTION":"15.37401003","RCS_SIZE":"LARGE","MEAN_ANOMALY":"226.8673","OBJECT_ID":"2022-001AW","TLE_LINE2":"2 50847  53.2175 290.3193 0001876  38.3430 226.8673 15.37401003  3673","OBJECT_NAME":"STARLINK-3319","REF_FRAME":"TEME","LAUNCH_DATE":"2022-01-06","APOAPSIS":"455.082"},{"NORAD_CAT_ID":"50848","PERIOD":"93.607","MEAN_MOTION_DDOT":"0.0000000000000","FILE":"3341695","EPHEMERIS_TYPE":"0","OBJECT_TYPE":"PAYLOAD","TLE_LINE1":"1 50848U 22001AX  22061.91667824 -.00663772  00000-0 -18613-1 0  9997","PERIAPSIS":"449.854","ECCENTRICITY":"0.00017130","CLASSIFICATION_TYPE":"U","GP_ID":"197661717","MEAN_ELEMENT_THEORY":"SGP4","ELEMENT_SET_NO":"999","RA_OF_ASC_NODE":"290.3152","SITE":"AFETR","TIME_SYSTEM":"UTC","ARG_OF_PERICENTER":"36.8825","MEAN_MOTION_DOT":"-0.00663772","REV_AT_EPOCH":"367","SEMIMAJOR_AXIS":"6829.159","MEAN_MOTION":"15.38338515","BSTAR":"-0.01861300000000","MEAN_ANOMALY":"318.4731","RCS_SIZE":"LARGE","COUNTRY_CODE":"US","DECAY_DATE":null,"CENTER_NAME":"EARTH","EPOCH":"2022-03-02T22:00:00.999936","INCLINATION":"53.2174","TLE_LINE2":"2 50848  53.2174 290.3152 0001713  36.8825 318.4731 15.38338515  3670","REF_FRAME":"TEME","LAUNCH_DATE":"2022-01-06","OBJECT_NAME":"STARLINK-3315","APOAPSIS":"452.194","OBJECT_ID":"2022-001AX"}];
